NORAD_CAT_ID,OBJECT_NAME,OBJECT_TYPE,EPOCH,MEAN_MOTION,ECCENTRICITY,INCLINATION,RA_OF_ASC_NODE,ARG_OF_PERICENTER,MEAN_ANOMALY,BSTAR,MEAN_MOTION_DOT,MEAN_MOTION_DDOT,TLE_LINE0,TLE_LINE1,TLE_LINE2,SEMIMAJOR_AXIS,PERIOD,APOGEE,PERIGEE,DECAYED
53824.0,STARLINK-4757,PAYLOAD,2023-08-26 21:02:31,15.08837782,0.0001462,53.2172,140.3553,103.4313,256.6842,2.8746e-05,1.7e-06,0.0,0 STARLINK-4757,1 53824U 22114G   23238.87675670  .00000170  00000-0  28746-4 0  9995,2 53824  53.2172 140.3553 0001462 103.4313 256.6842 15.08837782 52978,6917.887,95.438,540.764,538.741,0.0
53824.0,STARLINK-4757,PAYLOAD,2023-08-27 01:48:41,15.08840136,0.0001493,53.2173,139.4633,101.3026,258.8134,4.3673e-05,4.07e-06,0.0,0 STARLINK-4757,1 53824U 22114G   23239.07547502  .00000407  00000-0  43673-4 0  9999,2 53824  53.2173 139.4633 0001493 101.3026 258.8134 15.08840136 52558,6917.88,95.438,540.778,538.712,0.0
53824.0,STARLINK-4757,PAYLOAD,2023-08-27 20:53:19,15.08835265,0.0001585,53.2177,135.8946,107.9744,252.1421,2.5592e-05,1.19e-06,0.0,0 STARLINK-4757,1 53824U 22114G   23239.87035912  .00000119  00000-0  25592-4 0  9994,2 53824  53.2177 135.8946 0001585 107.9744 252.1421 15.08835265 53127,6917.895,95.438,540.856,538.663,0.0
53824.0,STARLINK-4757,PAYLOAD,2023-08-28 09:36:24,15.08834645,0.000145,53.2177,133.5172,80.8196,279.296,8.7108e-07,-2.74e-06,0.0,0 STARLINK-4757,1 53824U 22114G   23240.40028271 -.00000274  00000-0  87108-6 0  9991,2 53824  53.2177 133.5172 0001450  80.8196 279.2960 15.08834645 52751,6917.897,95.438,540.765,538.759,0.0
53824.0,STARLINK-4757,PAYLOAD,2023-08-28 20:44:06,15.08832961,0.0001498,53.2179,131.4374,97.5592,262.557,-6.7939e-06,-3.96e-06,0.0,0 STARLINK-4757,1 53824U 22114G   23240.86396586 -.00000396  00000-0 -67939-5 0  9993,2 53824  53.2179 131.4374 0001498  97.5592 262.5570 15.08832961 53270,6917.902,95.438,540.803,538.731,0.0
53824.0,STARLINK-4757,PAYLOAD,2023-08-29 09:27:11,15.08835625,0.0001457,53.2171,129.0589,101.8242,258.2914,2.6678e-05,1.37e-06,0.0,0 STARLINK-4757,1 53824U 22114G   23241.39388430  .00000137  00000-0  26678-4 0  9996,2 53824  53.2171 129.0589 0001457 101.8242 258.2914 15.08835625 53352,6917.894,95.438,540.767,538.751,0.0
53824.0,STARLINK-4757,PAYLOAD,2023-08-29 23:45:40,15.08838018,0.0001413,53.2172,126.3835,93.1476,266.9678,1.2289e-05,-9.2e-07,0.0,0 STARLINK-4757,1 53824U 22114G   23241.99004647 -.00000092  00000-0  12289-4 0  9991,2 53824  53.2172 126.3835 0001413  93.1476 266.9678 15.08838018 52992,6917.886,95.438,540.729,538.774,0.0
53824.0,STARLINK-4757,PAYLOAD,2023-08-30 09:17:58,15.08839564,0.0001409,53.2174,124.5996,95.4507,264.6646,4.2486e-05,3.88e-06,0.0,0 STARLINK-4757,1 53824U 22114G   23242.38748501  .00000388  00000-0  42486-4 0  9998,2 53824  53.2174 124.5996 0001409  95.4507 264.6646 15.08839564 53502,6917.882,95.438,540.721,538.772,0.0
53824.0,STARLINK-4757,PAYLOAD,2023-08-31 01:11:50,15.08840107,0.0001448,53.217,121.6252,86.7203,273.3954,7.1582e-05,8.51e-06,0.0,0 STARLINK-4757,1 53824U 22114G   23243.04988547  .00000851  00000-0  71582-4 0  9992,2 53824  53.2170 121.6252 0001448  86.7203 273.3954 15.08840107 53155,6917.88,95.438,540.747,538.743,0.0
53824.0,STARLINK-4757,PAYLOAD,2023-08-31 02:47:13,15.08841218,0.0001513,53.2172,121.3269,85.129,274.9875,8.0403e-05,9.92e-06,0.0,0 STARLINK-4757,1 53824U 22114G   23243.11612477  .00000992  00000-0  80403-4 0  9994,2 53824  53.2172 121.3269 0001513  85.1290 274.9875 15.08841218 53618,6917.877,95.437,540.788,538.695,0.0
53824.0,STARLINK-4757,PAYLOAD,2023-09-01 08:59:32,15.08841385,0.0001339,53.2153,115.6772,95.2799,264.8346,2.2465e-05,7e-07,0.0,0 STARLINK-4757,1 53824U 22114G   23244.37468520  .00000070  00000-0  22465-4 0  9992,2 53824  53.2153 115.6772 0001339  95.2799 264.8346 15.08841385 53351,6917.876,95.437,540.667,538.815,0.0
53824.0,STARLINK-4757,PAYLOAD,2023-09-01 21:42:37,15.08833293,2.11e-05,53.2169,113.297,254.136,105.9609,0.00014631,2.041e-05,0.0,0 STARLINK-4757,1 53824U 22114G   23244.90460184  .00002041  00000-0  14631-3 0  9994,2 53824  53.2169 113.2970 0000211 254.1360 105.9609 15.08833293 53884,6917.901,95.438,539.912,539.62,0.0
53824.0,STARLINK-4757,PAYLOAD,2023-09-02 08:50:19,15.08842507,0.0001413,53.2169,111.2152,88.214,271.9014,3.3931e-05,2.52e-06,0.0,0 STARLINK-4757,1 53824U 22114G   23245.36828330  .00000252  00000-0  33931-4 0  9993,2 53824  53.2169 111.2152 0001413  88.2140 271.9014 15.08842507 53951,6917.873,95.437,540.715,538.76,0.0
53824.0,STARLINK-4757,PAYLOAD,2023-09-03 00:44:11,15.08839297,0.0001478,53.215,108.2406,97.0603,263.0557,3.8402e-05,3.23e-06,0.0,0 STARLINK-4757,1 53824U 22114G   23246.03068435  .00000323  00000-0  38402-4 0  9997,2 53824  53.2150 108.2406 0001478  97.0603 263.0557 15.08839297 53600,6917.883,95.438,540.77,538.725,0.0
53824.0,STARLINK-4757,PAYLOAD,2023-09-04 00:34:58,15.08850363,0.0001315,53.2173,103.7807,98.1709,261.9433,-0.00012178,-2.226e-05,0.0,0 STARLINK-4757,1 53824U 22114G   23247.02428390 -.00002226  00000-0 -12178-3 0  9994,2 53824  53.2173 103.7807 0001315  98.1709 261.9433 15.08850363 54203,6917.849,95.437,540.623,538.804,0.0
53824.0,STARLINK-4757,PAYLOAD,2023-09-04 14:53:26,15.08842911,0.0001151,53.2163,101.1034,97.1774,262.9349,-0.00014852,-2.651e-05,0.0,0 STARLINK-4757,1 53824U 22114G   23247.62045029 -.00002651  00000-0 -14852-3 0  9997,2 53824  53.2163 101.1034 0001151  97.1774 262.9349 15.08842911 53841,6917.871,95.437,540.533,538.94,0.0
53824.0,STARLINK-4757,PAYLOAD,2023-09-05 00:25:45,15.08834323,0.00011,53.2162,99.3212,95.9862,264.1255,2.0717e-05,4.2e-07,0.0,0 STARLINK-4757,1 53824U 22114G   23248.01789178  .00000042  00000-0  20717-4 0  9999,2 53824  53.2162  99.3212 0001100  95.9862 264.1255 15.08834323 54359,6917.898,95.438,540.524,539.002,0.0
53824.0,STARLINK-4757,PAYLOAD,2023-09-06 00:16:32,15.08844132,0.0001048,53.2166,94.8608,92.4671,267.6441,7.4155e-05,8.93e-06,0.0,0 STARLINK-4757,1 53824U 22114G   23249.01148461  .00000893  00000-0  74155-4 0  9993,2 53824  53.2166  94.8608 0001048  92.4671 267.6441 15.08844132 54054,6917.868,95.437,540.458,539.008,0.0
53824.0,STARLINK-4757,PAYLOAD,2023-09-07 00:07:19,15.08838676,9.99e-05,53.2165,90.3998,87.5404,272.5703,6.152e-05,6.91e-06,0.0,0 STARLINK-4757,1 53824U 22114G   23250.00509000  .00000691  00000-0  61520-4 0  9992,2 53824  53.2165  90.3998 0000999  87.5404 272.5703 15.08838676 54208,6917.884,95.438,540.441,539.058,0.0
53824.0,STARLINK-4757,PAYLOAD,2023-09-07 12:50:24,15.08845825,0.0001461,53.216,88.0206,88.1962,271.9198,-7.2926e-05,-1.449e-05,0.0,0 STARLINK-4757,1 53824U 22114G   23250.53500948 -.00001449  00000-0 -72926-4 0  9998,2 53824  53.2160  88.0206 0001461  88.1962 271.9198 15.08845825 54733,6917.863,95.437,540.738,538.717,0.0
53824.0,STARLINK-4757,PAYLOAD,2023-09-07 14:25:48,15.08844401,0.0001009,53.2167,87.7234,87.2693,272.8415,-3.2738e-05,-8.09e-06,0.0,0 STARLINK-4757,1 53824U 22114G   23250.60125004 -.00000809  00000-0 -32738-4 0  9998,2 53824  53.2167  87.7234 0001009  87.2693 272.8415 15.08844401 54748,6917.867,95.437,540.43,539.034,0.0
53824.0,STARLINK-4757,PAYLOAD,2023-09-07 22:22:44,15.08800824,0.0001602,53.2154,86.2362,104.2659,255.8511,0.00060974,9.419e-05,0.0,0 STARLINK-4757,1 53824U 22114G   23250.93245566  .00009419  00000-0  60974-3 0  9996,2 53824  53.2154  86.2362 0001602 104.2659 255.8511 15.08800824 54346,6918.0,95.44,540.973,538.757,0.0
53824.0,STARLINK-4757,PAYLOAD,2023-09-08 12:41:12,15.08837201,0.0001523,53.2141,83.5591,98.1473,261.9691,1.7004e-05,-1.7e-07,0.0,0 STARLINK-4757,1 53824U 22114G   23251.52861274 -.00000017  00000-0  17004-4 0  9995,2 53824  53.2141  83.5591 0001523  98.1473 261.9691 15.08837201 54888,6917.889,95.438,540.808,538.7,0.0
53824.0,STARLINK-4757,PAYLOAD,2023-09-08 19:02:44,15.08839736,0.000131,53.2153,82.3705,89.7908,270.3234,-1.315e-05,-4.97e-06,0.0,0 STARLINK-4757,1 53824U 22114G   23251.79357279 -.00000497  00000-0 -13150-4 0  9990,2 53824  53.2153  82.3705 0001310  89.7908 270.3234 15.08839736 54475,6917.881,95.438,540.652,538.84,0.0
53824.0,STARLINK-4757,PAYLOAD,2023-09-09 12:31:59,15.08836028,0.0001339,53.216,79.0997,87.1538,272.9608,2.2233e-05,6.6e-07,0.0,0 STARLINK-4757,1 53824U 22114G   23252.52221527  .00000066  00000-0  22233-4 0  9990,2 53824  53.2160  79.0997 0001339  87.1538 272.9608 15.08836028 55038,6917.893,95.438,540.684,538.831,0.0
53824.0,STARLINK-4757,PAYLOAD,2023-09-10 06:01:13,15.08838666,0.0001338,53.2164,75.8295,85.4807,274.6338,7.6606e-05,9.31e-06,0.0,0 STARLINK-4757,1 53824U 22114G   23253.25085213  .00000931  00000-0  76606-4 0  9995,2 53824  53.2164  75.8295 0001338  85.4807 274.6338 15.08838666 54696,6917.884,95.438,540.675,538.824,0.0
53824.0,STARLINK-4757,PAYLOAD,2023-09-10 12:22:46,15.08840354,0.0001317,53.2165,74.6399,85.1944,274.9198,6.8274e-05,7.99e-06,0.0,0 STARLINK-4757,1 53824U 22114G   23253.51581175  .00000799  00000-0  68274-4 0  9996,2 53824  53.2165  74.6399 0001317  85.1944 274.9198 15.08840354 55184,6917.879,95.438,540.655,538.833,0.0
53824.0,STARLINK-4757,PAYLOAD,2023-09-11 12:13:33,15.08838021,0.000125,53.2182,70.1792,88.2863,271.8273,2.7975e-06,-2.43e-06,0.0,0 STARLINK-4757,1 53824U 22114G   23254.50941610 -.00000243  00000-0  27975-5 0  9999,2 53824  53.2182  70.1792 0001250  88.2863 271.8273 15.08838021 55336,6917.886,95.438,540.616,538.887,0.0
53824.0,STARLINK-4757,PAYLOAD,2023-09-11 18:35:05,15.08840193,0.0001184,53.2172,68.9892,86.9132,273.1996,6.193e-06,-1.89e-06,0.0,0 STARLINK-4757,1 53824U 22114G   23254.77437442 -.00000189  00000-0  61930-5 0  9999,2 53824  53.2172  68.9892 0001184  86.9132 273.1996 15.08840193 54925,6917.88,95.438,540.564,538.926,0.0
53824.0,STARLINK-4757,PAYLOAD,2023-09-12 12:04:20,15.08837796,0.0001112,53.2176,65.7188,91.0215,269.0905,1.9987e-06,-2.56e-06,0.0,0 STARLINK-4757,1 53824U 22114G   23255.50301652 -.00000256  00000-0  19987-5 0  9994,2 53824  53.2176  65.7188 0001112  91.0215 269.0905 15.08837796 55483,6917.887,95.438,540.521,538.983,0.0
